{"type": "FeatureCollection", "features": [ {"type": "Feature", "properties": {"norad_id": 40664, "name": "SKY MEXICO-1", "group": "intelsat", "lat": -0.003093255804120944, "lon": 142.5284857250756, "alt_km": 35793.88832413108, "timestamp": "2025-12-17T09:00:16.812662+00:00", "meta": {"OBJECT_NAME": "SKY MEXICO-1", "OBJECT_ID": "2015-026B", "EPOCH": "2025-12-16T09:33:29.684736", "MEAN_MOTION": 1.0027154, "ECCENTRICITY": 0.00024006, "INCLINATION": 0.0194, "RA_OF_ASC_NODE": 301.9288, "ARG_OF_PERICENTER": 339.69, "MEAN_ANOMALY": 228.2818, "EPHEMERIS_TYPE": 0, "CLASSIFICATION_TYPE": "U", "NORAD_CAT_ID": 40664, "ELEMENT_SET_NO": 999, "REV_AT_EPOCH": 3862, "BSTAR": 0, "MEAN_MOTION_DOT": -2.11e-06, "MEAN_MOTION_DDOT": 0}, "tle": {"line1": "1 40664U 15026B   25350.39826024 -.00000211  00000+0  00000+0 0  9996", "line2": "2 40664   0.0194 301.9288 0002400 339.6900 228.2818  1.00271540 38623"}}, "geometry": {"type": "Point", "coordinates": [142.5284857250756, -0.003093255804120944]}}, {"type": "Feature", "properties": {"norad_id": 40874, "name": "INTELSAT 34 (IS-34)", "group": "intelsat", "lat": -0.01269130981028571, "lon": 165.81202256619133, "alt_km": 35783.730711462624, "timestamp": "2025-12-17T09:00:16.812674+00:00", "meta": {"OBJECT_NAME": "INTELSAT 34 (IS-34)", "OBJECT_ID": "2015-039A", "EPOCH": "2025-12-16T16:30:50.428224", "MEAN_MOTION": 1.00270545, "ECCENTRICITY": 6.957e-05, "INCLINATION": 0.0134, "RA_OF_ASC_NODE": 312.2249, "ARG_OF_PERICENTER": 195.9372, "MEAN_ANOMALY": 129.6257, "EPHEMERIS_TYPE": 0, "CLASSIFICATION_TYPE": "U", "NORAD_CAT_ID": 40874, "ELEMENT_SET_NO": 999, "REV_AT_EPOCH": 3779, "BSTAR": 0, "MEAN_MOTION_DOT": -2.61e-06, "MEAN_MOTION_DDOT": 0}, "tle": {"line1": "1 40874U 15039A   25350.68808366 -.00000261  00000+0  00000+0 0  9999", "line2": "2 40874   0.0134 312.2249 0000695 195.9372 129.6257  1.00270545 37794"}}, "geometry": {"type": "Point", "coordinates": [165.81202256619133, -0.01269130981028571]}}, {"type": "Feature", "properties": {"norad_id": 41581, "name": "INTELSAT 31 (IS-31)", "group": "intelsat", "lat": 6.047704552157542e-05, "lon": 126.24302594107388, "alt_km": 35784.71366333681, "timestamp": "2025-12-17T09:00:16.812686+00:00", "meta": {"OBJECT_NAME": "INTELSAT 31 (IS-31)", "OBJECT_ID": "2016-035A", "EPOCH": "2025-12-16T09:29:38.777280", "MEAN_MOTION": 1.00273672, "ECCENTRICITY": 0.00019671, "INCLINATION": 0.0195, "RA_OF_ASC_NODE": 272.5093, "ARG_OF_PERICENTER": 297.3574, "MEAN_ANOMALY": 282.7801, "EPHEMERIS_TYPE": 0, "CLASSIFICATION_TYPE": "U", "NORAD_CAT_ID": 41581, "ELEMENT_SET_NO": 999, "REV_AT_EPOCH": 3485, "BSTAR": 0, "MEAN_MOTION_DOT": -1.28e-06, "MEAN_MOTION_DDOT": 0}, "tle": {"line1": "1 41581U 16035A   25350.39558770 -.00000128  00000+0  00000+0 0  9993", "line2": "2 41581   0.0195 272.5093 0001967 297.3574 282.7801  1.00273672 34850"}}, "geometry": {"type": "Point", "coordinates": [126.24302594107388, 6.047704552157542e-05]}}, {"type": "Feature", "properties": {"norad_id": 41747, "name": "INTELSAT 36 (IS-36)", "group": "intelsat", "lat": -0.031871616918389536, "lon": -70.21394867134917, "alt_km": 35782.46062422068, "timestamp": "2025-12-17T09:00:16.812697+00:00", "meta": {"OBJECT_NAME": "INTELSAT 36 (IS-36)", "OBJECT_ID": "2016-053A", "EPOCH": "2025-12-16T18:49:07.186944", "MEAN_MOTION": 1.00271137, "ECCENTRICITY": 0.00011651, "INCLINATION": 0.0113, "RA_OF_ASC_NODE": 0.976, "ARG_OF_PERICENTER": 328.2482, "MEAN_ANOMALY": 107.2108, "EPHEMERIS_TYPE": 0, "CLASSIFICATION_TYPE": "U", "NORAD_CAT_ID": 41747, "ELEMENT_SET_NO": 999, "REV_AT_EPOCH": 3411, "BSTAR": 0, "MEAN_MOTION_DOT": 0, "MEAN_MOTION_DDOT": 0}, "tle": {"line1": "1 41747U 16053A   25350.78411096  .00000000  00000+0  00000+0 0  9997", "line2": "2 41747   0.0113   0.9760 0001165 328.2482 107.2108  1.00271137 34114"}}, "geometry": {"type": "Point", "coordinates": [-70.21394867134917, -0.031871616918389536]}}, {"type": "Feature", "properties": {"norad_id": 41945, "name": "INTELSAT 32E (IS-32E)", "group": "intelsat", "lat": 0.0184590228529433, "lon": 178.13841201703403, "alt_km": 35788.09689135251, "timestamp": "2025-12-17T09:00:16.812709+00:00", "meta": {"OBJECT_NAME": "INTELSAT 32E (IS-32E)", "OBJECT_ID": "2017-007B", "EPOCH": "2025-12-16T04:35:28.228416", "MEAN_MOTION": 1.00271613, "ECCENTRICITY": 5.242e-05, "INCLINATION": 0.0304, "RA_OF_ASC_NODE": 75.3547, "ARG_OF_PERICENTER": 315.6867, "MEAN_ANOMALY": 79.7377, "EPHEMERIS_TYPE": 0, "CLASSIFICATION_TYPE": "U", "NORAD_CAT_ID": 41945, "ELEMENT_SET_NO": 999, "REV_AT_EPOCH": 3239, "BSTAR": 0, "MEAN_MOTION_DOT": -2.46e-06, "MEAN_MOTION_DDOT": 0}, "tle": {"line1": "1 41945U 17007B   25350.19129894 -.00000246  00000+0  00000+0 0  9997", "line2": "2 41945   0.0304  75.3547 0000524 315.6867  79.7377  1.00271613 32398"}}, "geometry": {"type": "Point", "coordinates": [178.13841201703403, 0.0184590228529433]}}, {"type": "Feature", "properties": {"norad_id": 42818, "name": "INTELSAT 35E (IS-35E)", "group": "intelsat", "lat": -0.012394749681698004, "lon": -173.21258293422954, "alt_km": 35785.53196614567, "timestamp": "2025-12-17T09:00:16.812720+00:00", "meta": {"OBJECT_NAME": "INTELSAT 35E (IS-35E)", "OBJECT_ID": "2017-041A", "EPOCH": "2025-12-16T16:37:04.829664", "MEAN_MOTION": 1.00270275, "ECCENTRICITY": 0.00018409, "INCLINATION": 0.0251, "RA_OF_ASC_NODE": 358.2712, "ARG_OF_PERICENTER": 270.9711, "MEAN_ANOMALY": 31.1092, "EPHEMERIS_TYPE": 0, "CLASSIFICATION_TYPE": "U", "NORAD_CAT_ID": 42818, "ELEMENT_SET_NO": 999, "REV_AT_EPOCH": 3098, "BSTAR": 0, "MEAN_MOTION_DOT": 0, "MEAN_MOTION_DDOT": 0}, "tle": {"line1": "1 42818U 17041A   25350.69241701  .00000000  00000+0  00000+0 0  9999", "line2": "2 42818   0.0251 358.2712 0001840 270.9711  31.1092  1.00270275 30981"}}, "geometry": {"type": "Point", "coordinates": [-173.21258293422954, -0.012394749681698004]}}, {"type": "Feature", "properties": {"norad_id": 42950, "name": "INTELSAT 37E (IS-37E)", "group": "intelsat", "lat": -0.010057474130904982, "lon": -156.71640822044023, "alt_km": 35778.97187485421, "timestamp": "2025-12-17T09:00:16.812732+00:00", "meta": {"OBJECT_NAME": "INTELSAT 37E (IS-37E)", "OBJECT_ID": "2017-059A", "EPOCH": "2025-12-16T16:41:41.887680", "MEAN_MOTION": 1.00271305, "ECCENTRICITY": 0.00029525, "INCLINATION": 0.0011, "RA_OF_ASC_NODE": 15.7899, "ARG_OF_PERICENTER": 241.9436, "MEAN_ANOMALY": 60.2756, "EPHEMERIS_TYPE": 0, "CLASSIFICATION_TYPE": "U", "NORAD_CAT_ID": 42950, "ELEMENT_SET_NO": 999, "REV_AT_EPOCH": 3023, "BSTAR": 0, "MEAN_MOTION_DOT": -1.17e-06, "MEAN_MOTION_DDOT": 0}, "tle": {"line1": "1 42950U 17059A   25350.69562370 -.00000117  00000+0  00000+0 0  9993", "line2": "2 42950   0.0011  15.7899 0002952 241.9436  60.2756  1.00271305 30233"}}, "geometry": {"type": "Point", "coordinates": [-156.71640822044023, -0.010057474130904982]}}, {"type": "Feature", "properties": {"norad_id": 43632, "name": "AZERSPACE 2 (IS-38)", "group": "intelsat", "lat": -0.039670755239339675, "lon": -93.57697254914667, "alt_km": 35780.892314731835, "timestamp": "2025-12-17T09:00:16.812744+00:00", "meta": {"OBJECT_NAME": "AZERSPACE 2 (IS-38)", "OBJECT_ID": "2018-074A", "EPOCH": "2025-12-16T18:42:30.320640", "MEAN_MOTION": 1.00271781, "ECCENTRICITY": 0.00012112, "INCLINATION": 0.0171, "RA_OF_ASC_NODE": 333.513, "ARG_OF_PERICENTER": 296.0191, "MEAN_ANOMALY": 141.8726, "EPHEMERIS_TYPE": 0, "CLASSIFICATION_TYPE": "U", "NORAD_CAT_ID": 43632, "ELEMENT_SET_NO": 999, "REV_AT_EPOCH": 2661, "BSTAR": 0, "MEAN_MOTION_DOT": 1.61e-06, "MEAN_MOTION_DDOT": 0}, "tle": {"line1": "1 43632U 18074A   25350.77951760  .00000161  00000+0  00000+0 0  9991", "line2": "2 43632   0.0171 333.5130 0001211 296.0191 141.8726  1.00271781 26611"}}, "geometry": {"type": "Point", "coordinates": [-93.57697254914667, -0.039670755239339675]}}, {"type": "Feature", "properties": {"norad_id": 43633, "name": "HORIZONS-3E", "group": "intelsat", "lat": 0.021285752011344045, "lon": 30.29746653587569, "alt_km": 35786.56104004977, "timestamp": "2025-12-17T09:00:16.812770+00:00", "meta": {"OBJECT_NAME": "HORIZONS-3E", "OBJECT_ID": "2018-074B", "EPOCH": "2025-12-16T14:09:40.218048", "MEAN_MOTION": 1.00269891, "ECCENTRICITY": 8.37e-05, "INCLINATION": 0.0492, "RA_OF_ASC_NODE": 188.1186, "ARG_OF_PERICENTER": 112.8726, "MEAN_ANOMALY": 165.8874, "EPHEMERIS_TYPE": 0, "CLASSIFICATION_TYPE": "U", "NORAD_CAT_ID": 43633, "ELEMENT_SET_NO": 999, "REV_AT_EPOCH": 2651, "BSTAR": 0, "MEAN_MOTION_DOT": -7e-08, "MEAN_MOTION_DDOT": 0}, "tle": {"line1": "1 43633U 18074B   25350.59004882 -.00000007  00000+0  00000+0 0  9996", "line2": "2 43633   0.0492 188.1186 0000837 112.8726 165.8874  1.00269891 26513"}}, "geometry": {"type": "Point", "coordinates": [30.29746653587569, 0.021285752011344045]}}, {"type": "Feature", "properties": {"norad_id": 44333, "name": "AT&T T-16", "group": "intelsat", "lat": 0.02811296602778368, "lon": 120.44638612554685, "alt_km": 35783.38724686554, "timestamp": "2025-12-17T09:00:16.812784+00:00", "meta": {"OBJECT_NAME": "AT&T T-16", "OBJECT_ID": "2019-034A", "EPOCH": "2025-12-16T16:18:06.646176", "MEAN_MOTION": 1.00269796, "ECCENTRICITY": 7.975e-05, "INCLINATION": 0.0222, "RA_OF_ASC_NODE": 61.0457, "ARG_OF_PERICENTER": 73.1825, "MEAN_ANOMALY": 95.0089, "EPHEMERIS_TYPE": 0, "CLASSIFICATION_TYPE": "U", "NORAD_CAT_ID": 44333, "ELEMENT_SET_NO": 999, "REV_AT_EPOCH": 2380, "BSTAR": 0, "MEAN_MOTION_DOT": -9.1e-07, "MEAN_MOTION_DDOT": 0}, "tle": {"line1": "1 44333U 19034A   25350.67924359 -.00000091  00000+0  00000+0 0  9993", "line2": "2 44333   0.0222  61.0457 0000797  73.1825  95.0089  1.00269796 23801"}}, "geometry": {"type": "Point", "coordinates": [120.44638612554685, 0.02811296602778368]}}]}